ONEWEB-0538             
1 56047U 23043B   23312.25002315  .00000015  00000+0  00000+0 0  9997
2 56047  87.6861  58.5544 0002011 216.3063 110.6532 13.66779946 34548
ONEWEB-0546             
1 56048U 23043C   23312.25002315  .00000015  00000+0  00000+0 0  9998
2 56048  87.6921  58.5189 0003579  95.0132 142.0048 13.65161491 34540
ONEWEB-0547             
1 56049U 23043D   23311.76072494  .00000072  00000+0  14385-3 0  9997
2 56049  87.9238  73.5827 0001163 113.7635 246.3621 13.21827517 33313
ONEWEB-0548             
1 56050U 23043E   23312.25002315  .00000015  00000+0  00000+0 0  9991
2 56050  87.6848  58.5641 0003489  65.5990  98.1937 13.65643941 34541
ONEWEB-0549             
1 56051U 23043F   23312.05562356  .00003191  00000+0  76945-2 0  9998
2 56051  87.9231  73.5251 0001644  86.0971 274.0351 13.21810971 33357
ONEWEB-0550             
1 56052U 23043G   23311.58881559 -.00000205  00000+0 -52881-3 0  9994
2 56052  87.9239  73.6303 0001680  91.2775 268.8552 13.21826679 32383
ONEWEB-0551             
1 56053U 23043H   23311.84144347  .00000360  00000+0  92293-3 0  9992
2 56053  87.8969  88.8224 0001317  93.9606 266.1674 13.15552744 32098
ONEWEB-0552             
1 56054U 23043J   23312.11237690 -.00001143  00000+0 -27993-2 0  9994
2 56054  87.9234  73.5367 0001625  86.2955 273.8365 13.21836207 33367
